OBJECT_NAME,OBJECT_ID,EPOCH,MEAN_MOTION,ECCENTRICITY,INCLINATION,RA_OF_ASC_NODE,ARG_OF_PERICENTER,MEAN_ANOMALY,EPHEMERIS_TYPE,CLASSIFICATION_TYPE,NORAD_CAT_ID,ELEMENT_SET_NO,REV_AT_EPOCH,BSTAR,MEAN_MOTION_DOT,MEAN_MOTION_DDOT
STARLINK-37990,2026-145G,2026-07-01T14:00:01.999872,15.80823012,.00018007,97.2849,28.7468,88.6390,275.4409,0,U,69683,999,224,.37495284E-4,.7048E-4,0
STARLINK-37951,2026-145H,2026-07-01T14:00:01.999872,15.80823372,.00015973,97.2847,28.7478,87.3219,277.4547,0,U,69684,999,224,-.30985477E-4,-.6075E-4,0
STARLINK-37957,2026-145J,2026-07-01T14:00:01.999872,15.80852383,.00009855,97.2847,28.7492,110.1790,257.4553,0,U,69685,999,224,-.44550592E-3,-.84792E-3,0
STARLINK-37968,2026-145K,2026-07-01T14:00:01.999872,15.83105408,.00015445,97.2855,28.7600,73.7757,318.6913,0,U,69686,999,224,-.12742035E-1,-.235605E-1,0
STARLINK-37977,2026-145L,2026-07-01T14:00:01.999872,15.83518565,.00015875,97.2857,28.7616,69.5610,328.5742,0,U,69687,999,224,-.12769548E-1,-.2400806E-1,0
STARLINK-37908,2026-145M,2026-07-01T14:00:01.999872,15.83832196,.00015634,97.2860,28.7658,81.1945,322.7854,0,U,69688,999,224,-.11305281E-1,-.2140323E-1,0
STARLINK-37979,2026-145N,2026-07-01T14:00:01.999872,15.84035876,.00015859,97.2859,28.7654,72.1858,335.2845,0,U,69689,999,224,-.12466221E-1,-.2402187E-1,0
STARLINK-37940,2026-145P,2026-07-01T14:00:01.999872,15.84579252,.0001633,97.2862,28.7688,75.5312,339.3706,0,U,69690,999,224,-.12126913E-1,-.2399155E-1,0
STARLINK-37961,2026-145Q,2026-07-01T14:00:01.999872,15.85109569,.00016903,97.2862,28.7721,66.7530,355.3293,0,U,69691,999,224,-.11794574E-1,-.239474E-1,0
STARLINK-37787,2026-145R,2026-07-01T14:00:01.999872,15.85531331,.00016903,97.2865,28.7754,74.5793,355.3411,0,U,69692,999,224,-.11527686E-1,-.2331726E-1,0
STARLINK-37962,2026-145S,2026-07-01T14:00:01.999872,15.85547657,.00016437,97.2865,28.7753,69.8082,359.3956,0,U,69693,999,224,-.11550357E-1,-.2337014E-1,0
STARLINK-37953,2026-145T,2026-07-01T14:00:01.999872,15.85501445,.00018094,97.2865,28.7756,74.4765,356.2507,0,U,69694,999,224,-.11603555E-1,-.2400473E-1,0
STARLINK-37926,2026-145U,2026-07-01T14:00:01.999872,15.85651017,.00018016,97.2866,28.7773,71.8189,1.6571,0,U,69695,999,224,-.11509376E-1,-.2340186E-1,0
STARLINK-37959,2026-145V,2026-07-01T14:00:01.999872,15.85663141,.00017049,97.2867,28.7770,71.2378,3.1753,0,U,69696,999,224,-.11446031E-1,-.2330453E-1,0
STARLINK-37976,2026-145W,2026-07-01T14:00:01.999872,15.86427609,.00016298,97.2872,28.7817,65.5776,19.2282,0,U,69697,999,224,-.1104692E-1,-.233429E-1,0
STARLINK-37912,2026-145X,2026-07-01T14:00:01.999872,15.86819624,.00017412,97.2870,28.7842,70.7209,19.6835,0,U,69698,999,224,-.10848566E-1,-.2336899E-1,0
STARLINK-37974,2026-145Y,2026-07-01T14:00:01.999872,15.86952341,.00016881,97.2870,28.7852,73.4178,19.6561,0,U,69699,999,224,-.10741466E-1,-.2330297E-1,0
STARLINK-37955,2026-145Z,2026-07-01T14:00:01.999872,15.87864399,.00017282,97.2873,28.7903,73.8576,30.6863,0,U,69700,999,224,-.10257419E-1,-.2329038E-1,0
STARLINK-38055,2026-147A,2026-07-01T14:00:01.999872,15.99908176,.00009133,97.2835,218.1166,73.0494,279.6831,0,U,69704,999,156,-.43356097E-2,-.2161025E-1,.1380661E-2
STARLINK-37898,2026-147B,2026-07-01T14:00:01.999872,16.00120170,.00008965,97.2834,218.1169,74.2787,279.0352,0,U,69705,999,156,-.44241359E-2,-.2231194E-1,.14728027E-2
STARLINK-37970,2026-147C,2026-07-01T14:00:01.999872,16.00245195,.00008043,97.2835,218.1170,73.4890,280.4912,0,U,69706,999,156,-.43048326E-2,-.2186765E-1,.14185459E-2
STARLINK-37975,2026-147D,2026-07-01T14:00:01.999872,16.00417150,.00006041,97.2833,218.1175,91.3645,263.2609,0,U,69707,999,156,-.42813999E-2,-.219609E-1,.14333602E-2
STARLINK-37972,2026-147E,2026-07-01T14:00:01.999872,16.00566124,.00005746,97.2834,218.1176,96.5637,258.7299,0,U,69708,999,156,-.42067838E-2,-.2176327E-1,.14110416E-2
STARLINK-37963,2026-147F,2026-07-01T14:00:01.999872,16.00700661,.0000779,97.2834,218.1177,75.3295,280.6248,0,U,69709,999,156,-.41215432E-2,-.214889E-1,.13790895E-2
STARLINK-37969,2026-147G,2026-07-01T14:00:01.999872,16.00859853,.00006265,97.2832,218.1180,82.0242,274.5866,0,U,69710,999,170,-.40733234E-2,-.2143158E-1,.13746913E-2
STARLINK-37956,2026-147H,2026-07-01T14:00:01.999872,16.00957659,.00006178,97.2831,218.1183,82.2432,274.9329,0,U,69711,999,156,-.40047325E-2,-.2119084E-1,.13466338E-2
STARLINK-38043,2026-147J,2026-07-01T14:00:01.999872,16.01125686,.00011685,97.2830,218.1183,90.6640,267.1462,0,U,69712,999,156,-.39986787E-2,-.2136324E-1,.13707482E-2
STARLINK-38020,2026-147K,2026-07-01T14:00:01.999872,16.01272902,.00010792,97.2830,218.1186,93.1521,265.3275,0,U,69713,999,156,-.39395222E-2,-.2122666E-1,.13563368E-2
STARLINK-38059,2026-147L,2026-07-01T14:00:01.999872,16.01398197,.00010041,97.2830,218.1189,90.4544,268.6405,0,U,69714,999,156,-.39048374E-2,-.2119199E-1,.13541745E-2
